{
  "type": "FeatureCollection",
  "features": [
    {
      "type": "Feature",
      "properties": {
        "norad_id": 41581,
        "name": "INTELSAT 31 (IS-31)",
        "group": "intelsat",
        "lat": 0.02350841718713122,
        "lon": 65.4488254858229,
        "alt_km": 35792.346206879876,
        "timestamp": "2025-12-17T04:57:44.067780+00:00",
        "meta_object_name": "INTELSAT 31 (IS-31)",
        "meta_object_id": "2016-035A",
        "meta_epoch": "2025-12-16T09:29:38.777280",
        "meta_mean_motion": 1.00273672,
        "meta_eccentricity": 0.00019671,
        "meta_inclination": 0.0195,
        "meta_ra_of_asc_node": 272.5093,
        "meta_arg_of_pericenter": 297.3574,
        "meta_mean_anomaly": 282.7801,
        "meta_ephemeris_type": 0,
        "meta_classification_type": "U",
        "meta_norad_cat_id": 41581,
        "meta_element_set_no": 999,
        "meta_rev_at_epoch": 3485,
        "meta_bstar": 0,
        "meta_mean_motion_dot": -1.28e-06,
        "meta_mean_motion_ddot": 0,
        "tle_line1": "1 41581U 16035A   25350.39558770 -.00000128  00000+0  00000+0 0  9993",
        "tle_line2": "2 41581   0.0195 272.5093 0001967 297.3574 282.7801  1.00273672 34850"
      },
      "geometry": {
        "type": "Point",
        "coordinates": [
          65.4488254858229,
          0.02350841718713122
        ]
      }
    },
    {
      "type": "Feature",
      "properties": {
        "norad_id": 41747,
        "name": "INTELSAT 36 (IS-36)",
        "group": "intelsat",
        "lat": -0.029627737649799583,
        "lon": -131.02077915834008,
        "alt_km": 35787.11037981268,
        "timestamp": "2025-12-17T04:57:44.067790+00:00",
        "meta_object_name": "INTELSAT 36 (IS-36)",
        "meta_object_id": "2016-053A",
        "meta_epoch": "2025-12-16T18:49:07.186944",
        "meta_mean_motion": 1.00271137,
        "meta_eccentricity": 0.00011651,
        "meta_inclination": 0.0113,
        "meta_ra_of_asc_node": 0.976,
        "meta_arg_of_pericenter": 328.2482,
        "meta_mean_anomaly": 107.2108,
        "meta_ephemeris_type": 0,
        "meta_classification_type": "U",
        "meta_norad_cat_id": 41747,
        "meta_element_set_no": 999,
        "meta_rev_at_epoch": 3411,
        "meta_bstar": 0,
        "meta_mean_motion_dot": 0,
        "meta_mean_motion_ddot": 0,
        "tle_line1": "1 41747U 16053A   25350.78411096  .00000000  00000+0  00000+0 0  9997",
        "tle_line2": "2 41747   0.0113   0.9760 0001165 328.2482 107.2108  1.00271137 34114"
      },
      "geometry": {
        "type": "Point",
        "coordinates": [
          -131.02077915834008,
          -0.029627737649799583
        ]
      }
    },
    {
      "type": "Feature",
      "properties": {
        "norad_id": 41945,
        "name": "INTELSAT 32E (IS-32E)",
        "group": "intelsat",
        "lat": 0.03055468868733591,
        "lon": 117.33892977067516,
        "alt_km": 35786.076541895076,
        "timestamp": "2025-12-17T04:57:44.067800+00:00",
        "meta_object_name": "INTELSAT 32E (IS-32E)",
        "meta_object_id": "2017-007B",
        "meta_epoch": "2025-12-16T04:35:28.228416",
        "meta_mean_motion": 1.00271613,
        "meta_eccentricity": 5.242e-05,
        "meta_inclination": 0.0304,
        "meta_ra_of_asc_node": 75.3547,
        "meta_arg_of_pericenter": 315.6867,
        "meta_mean_anomaly": 79.7377,
        "meta_ephemeris_type": 0,
        "meta_classification_type": "U",
        "meta_norad_cat_id": 41945,
        "meta_element_set_no": 999,
        "meta_rev_at_epoch": 3239,
        "meta_bstar": 0,
        "meta_mean_motion_dot": -2.46e-06,
        "meta_mean_motion_ddot": 0,
        "tle_line1": "1 41945U 17007B   25350.19129894 -.00000246  00000+0  00000+0 0  9997",
        "tle_line2": "2 41945   0.0304  75.3547 0000524 315.6867  79.7377  1.00271613 32398"
      },
      "geometry": {
        "type": "Point",
        "coordinates": [
          117.33892977067516,
          0.03055468868733591
        ]
      }
    },
    {
      "type": "Feature",
      "properties": {
        "norad_id": 42818,
        "name": "INTELSAT 35E (IS-35E)",
        "group": "intelsat",
        "lat": 0.0358028489847359,
        "lon": 125.99424477860003,
        "alt_km": 35792.78599636569,
        "timestamp": "2025-12-17T04:57:44.067811+00:00",
        "meta_object_name": "INTELSAT 35E (IS-35E)",
        "meta_object_id": "2017-041A",
        "meta_epoch": "2025-12-16T16:37:04.829664",
        "meta_mean_motion": 1.00270275,
        "meta_eccentricity": 0.00018409,
        "meta_inclination": 0.0251,
        "meta_ra_of_asc_node": 358.2712,
        "meta_arg_of_pericenter": 270.9711,
        "meta_mean_anomaly": 31.1092,
        "meta_ephemeris_type": 0,
        "meta_classification_type": "U",
        "meta_norad_cat_id": 42818,
        "meta_element_set_no": 999,
        "meta_rev_at_epoch": 3098,
        "meta_bstar": 0,
        "meta_mean_motion_dot": 0,
        "meta_mean_motion_ddot": 0,
        "tle_line1": "1 42818U 17041A   25350.69241701  .00000000  00000+0  00000+0 0  9999",
        "tle_line2": "2 42818   0.0251 358.2712 0001840 270.9711  31.1092  1.00270275 30981"
      },
      "geometry": {
        "type": "Point",
        "coordinates": [
          125.99424477860003,
          0.0358028489847359
        ]
      }
    },
    {
      "type": "Feature",
      "properties": {
        "norad_id": 42950,
        "name": "INTELSAT 37E (IS-37E)",
        "group": "intelsat",
        "lat": 0.012715241790922817,
        "lon": 142.4783455541298,
        "alt_km": 35791.574727238505,
        "timestamp": "2025-12-17T04:57:44.067821+00:00",
        "meta_object_name": "INTELSAT 37E (IS-37E)",
        "meta_object_id": "2017-059A",
        "meta_epoch": "2025-12-16T16:41:41.887680",
        "meta_mean_motion": 1.00271305,
        "meta_eccentricity": 0.00029525,
        "meta_inclination": 0.0011,
        "meta_ra_of_asc_node": 15.7899,
        "meta_arg_of_pericenter": 241.9436,
        "meta_mean_anomaly": 60.2756,
        "meta_ephemeris_type": 0,
        "meta_classification_type": "U",
        "meta_norad_cat_id": 42950,
        "meta_element_set_no": 999,
        "meta_rev_at_epoch": 3023,
        "meta_bstar": 0,
        "meta_mean_motion_dot": -1.17e-06,
        "meta_mean_motion_ddot": 0,
        "tle_line1": "1 42950U 17059A   25350.69562370 -.00000117  00000+0  00000+0 0  9993",
        "tle_line2": "2 42950   0.0011  15.7899 0002952 241.9436  60.2756  1.00271305 30233"
      },
      "geometry": {
        "type": "Point",
        "coordinates": [
          142.4783455541298,
          0.012715241790922817
        ]
      }
    },
    {
      "type": "Feature",
      "properties": {
        "norad_id": 43632,
        "name": "AZERSPACE 2 (IS-38)",
        "group": "intelsat",
        "lat": -0.03209737892691347,
        "lon": -154.3913931668076,
        "alt_km": 35783.77404137798,
        "timestamp": "2025-12-17T04:57:44.067832+00:00",
        "meta_object_name": "AZERSPACE 2 (IS-38)",
        "meta_object_id": "2018-074A",
        "meta_epoch": "2025-12-16T18:42:30.320640",
        "meta_mean_motion": 1.00271781,
        "meta_eccentricity": 0.00012112,
        "meta_inclination": 0.0171,
        "meta_ra_of_asc_node": 333.513,
        "meta_arg_of_pericenter": 296.0191,
        "meta_mean_anomaly": 141.8726,
        "meta_ephemeris_type": 0,
        "meta_classification_type": "U",
        "meta_norad_cat_id": 43632,
        "meta_element_set_no": 999,
        "meta_rev_at_epoch": 2661,
        "meta_bstar": 0,
        "meta_mean_motion_dot": 1.61e-06,
        "meta_mean_motion_ddot": 0,
        "tle_line1": "1 43632U 18074A   25350.77951760  .00000161  00000+0  00000+0 0  9991",
        "tle_line2": "2 43632   0.0171 333.5130 0001211 296.0191 141.8726  1.00271781 26611"
      },
      "geometry": {
        "type": "Point",
        "coordinates": [
          -154.3913931668076,
          -0.03209737892691347
        ]
      }
    },
    {
      "type": "Feature",
      "properties": {
        "norad_id": 43633,
        "name": "HORIZONS-3E",
        "group": "intelsat",
        "lat": 0.02388482992033142,
        "lon": -30.508938219923504,
        "alt_km": 35783.497179620834,
        "timestamp": "2025-12-17T04:57:44.067842+00:00",
        "meta_object_name": "HORIZONS-3E",
        "meta_object_id": "2018-074B",
        "meta_epoch": "2025-12-16T14:09:40.218048",
        "meta_mean_motion": 1.00269891,
        "meta_eccentricity": 8.37e-05,
        "meta_inclination": 0.0492,
        "meta_ra_of_asc_node": 188.1186,
        "meta_arg_of_pericenter": 112.8726,
        "meta_mean_anomaly": 165.8874,
        "meta_ephemeris_type": 0,
        "meta_classification_type": "U",
        "meta_norad_cat_id": 43633,
        "meta_element_set_no": 999,
        "meta_rev_at_epoch": 2651,
        "meta_bstar": 0,
        "meta_mean_motion_dot": -7e-08,
        "meta_mean_motion_ddot": 0,
        "tle_line1": "1 43633U 18074B   25350.59004882 -.00000007  00000+0  00000+0 0  9996",
        "tle_line2": "2 43633   0.0492 188.1186 0000837 112.8726 165.8874  1.00269891 26513"
      },
      "geometry": {
        "type": "Point",
        "coordinates": [
          -30.508938219923504,
          0.02388482992033142
        ]
      }
    }
  ]
}